
[{"ORDINAL":"1","COMMENT":"GENERATED VIA SPACETRACK.ORG API","ORIGINATOR":"JSPOC","NORAD_CAT_ID":"40356","OBJECT_NAME":"BREEZE-M DEB (TANK)","OBJECT_TYPE":"DEBRIS","CLASSIFICATION_TYPE":"U","INTLDES":"14085B","EPOCH":"2015-04-08 20:13:04","EPOCH_MICROSECONDS":"916064","MEAN_MOTION":"2.2641919","ECCENTRICITY":"0.7195085","INCLINATION":"60.5558","RA_OF_ASC_NODE":"125.4766","ARG_OF_PERICENTER":"4.4224","MEAN_ANOMALY":"359.6028","EPHEMERIS_TYPE":"0","ELEMENT_SET_NO":"999","REV_AT_EPOCH":"208","BSTAR":"2.7423e-05","MEAN_MOTION_DOT":"4e-08","MEAN_MOTION_DDOT":"0","FILE":"1853121","TLE_LINE0":"0 BREEZE-M DEB (TANK)","TLE_LINE1":"1 40356U 14085B   15098.84241801  .00000004  00000-0  27423-4 0  9993","TLE_LINE2":"2 40356 060.5558 125.4766 7195085 004.4224 359.6028 02.26419190  2088","OBJECT_ID":"2014-085B","OBJECT_NUMBER":"40356"},{"ORDINAL":"3","COMMENT":"GENERATED VIA SPACETRACK.ORG API","ORIGINATOR":"JSPOC","NORAD_CAT_ID":"40386","OBJECT_NAME":"BREEZE-M DEB (TANK)","OBJECT_TYPE":"DEBRIS","CLASSIFICATION_TYPE":"U","INTLDES":"15005C","EPOCH":"2015-04-08 20:19:43","EPOCH_MICROSECONDS":"145760","MEAN_MOTION":"5.25237617","ECCENTRICITY":"0.5184525","INCLINATION":"50.7385","RA_OF_ASC_NODE":"277.8871","ARG_OF_PERICENTER":"211.5008","MEAN_ANOMALY":"103.1149","EPHEMERIS_TYPE":"0","ELEMENT_SET_NO":"999","REV_AT_EPOCH":"345","BSTAR":"8.5449e-05","MEAN_MOTION_DOT":"2.3e-06","MEAN_MOTION_DDOT":"0","FILE":"1853192","TLE_LINE0":"0 BREEZE-M DEB (TANK)","TLE_LINE1":"1 40386U 15005C   15098.84702715  .00000230  00000-0  85449-4 0  9998","TLE_LINE2":"2 40386 050.7385 277.8871 5184525 211.5008 103.1149 05.25237617  3457","OBJECT_ID":"2015-005C","OBJECT_NUMBER":"40386"},{"ORDINAL":"2","COMMENT":"GENERATED VIA SPACETRACK.ORG API","ORIGINATOR":"JSPOC","NORAD_CAT_ID":"40386","OBJECT_NAME":"BREEZE-M DEB (TANK)","OBJECT_TYPE":"DEBRIS","CLASSIFICATION_TYPE":"U","INTLDES":"15005C","EPOCH":"2015-04-08 20:19:46","EPOCH_MICROSECONDS":"946495","MEAN_MOTION":"5.25244774","ECCENTRICITY":"0.5184218","INCLINATION":"50.7465","RA_OF_ASC_NODE":"277.9253","ARG_OF_PERICENTER":"211.4554","MEAN_ANOMALY":"103.2145","EPHEMERIS_TYPE":"0","ELEMENT_SET_NO":"999","REV_AT_EPOCH":"345","BSTAR":"0.0010687","MEAN_MOTION_DOT":"2.806e-05","MEAN_MOTION_DDOT":"0","FILE":"1853317","TLE_LINE0":"0 BREEZE-M DEB (TANK)","TLE_LINE1":"1 40386U 15005C   15098.84707114  .00002806  00000-0  10687-2 0  9997","TLE_LINE2":"2 40386 050.7465 277.9253 5184218 211.4554 103.2145 05.25244774  3454","OBJECT_ID":"2015-005C","OBJECT_NUMBER":"40386"},{"ORDINAL":"2","COMMENT":"GENERATED VIA SPACETRACK.ORG API","ORIGINATOR":"JSPOC","NORAD_CAT_ID":"40263","OBJECT_NAME":"CZ-2C DEB","OBJECT_TYPE":"DEBRIS","CLASSIFICATION_TYPE":"U","INTLDES":"14059C","EPOCH":"2015-04-08 20:31:14","EPOCH_MICROSECONDS":"577312","MEAN_MOTION":"14.48340013","ECCENTRICITY":"0.0111978","INCLINATION":"98.3205","RA_OF_ASC_NODE":"189.0849","ARG_OF_PERICENTER":"354.6281","MEAN_ANOMALY":"5.4199","EPHEMERIS_TYPE":"0","ELEMENT_SET_NO":"999","REV_AT_EPOCH":"2787","BSTAR":"0.00037795","MEAN_MOTION_DOT":"1.529e-05","MEAN_MOTION_DDOT":"0","FILE":"1853121","TLE_LINE0":"0 CZ-2C DEB","TLE_LINE1":"1 40263U 14059C   15098.85502983  .00001529  00000-0  37795-3 0  9998","TLE_LINE2":"2 40263 098.3205 189.0849 0111978 354.6281 005.4199 14.48340013 27879","OBJECT_ID":"2014-059C","OBJECT_NUMBER":"40263"},{"ORDINAL":"5","COMMENT":"GENERATED VIA SPACETRACK.ORG API","ORIGINATOR":"JSPOC","NORAD_CAT_ID":"40290","OBJECT_NAME":"CZ-2C DEB","OBJECT_TYPE":"DEBRIS","CLASSIFICATION_TYPE":"U","INTLDES":"14066E","EPOCH":"2015-04-08 21:19:55","EPOCH_MICROSECONDS":"271424","MEAN_MOTION":"14.50193134","ECCENTRICITY":"0.0101259","INCLINATION":"97.9715","RA_OF_ASC_NODE":"209.2608","ARG_OF_PERICENTER":"80.6579","MEAN_ANOMALY":"280.6547","EPHEMERIS_TYPE":"0","ELEMENT_SET_NO":"999","REV_AT_EPOCH":"2370","BSTAR":"0.00070156","MEAN_MOTION_DOT":"2.912e-05","MEAN_MOTION_DDOT":"0","FILE":"1853158","TLE_LINE0":"0 CZ-2C DEB","TLE_LINE1":"1 40290U 14066E   15098.88883416  .00002912  00000-0  70156-3 0  9997","TLE_LINE2":"2 40290 097.9715 209.2608 0101259 080.6579 280.6547 14.50193134 23700","OBJECT_ID":"2014-066E","OBJECT_NUMBER":"40290"},{"ORDINAL":"3","COMMENT":"GENERATED VIA SPACETRACK.ORG API","ORIGINATOR":"JSPOC","NORAD_CAT_ID":"40291","OBJECT_NAME":"CZ-2C DEB","OBJECT_TYPE":"DEBRIS","CLASSIFICATION_TYPE":"U","INTLDES":"14066F","EPOCH":"2015-04-09 00:28:22","EPOCH_MICROSECONDS":"416096","MEAN_MOTION":"14.22396349","ECCENTRICITY":"0.0178585","INCLINATION":"98.4541","RA_OF_ASC_NODE":"211.3535","ARG_OF_PERICENTER":"56.2418","MEAN_ANOMALY":"305.6121","EPHEMERIS_TYPE":"0","ELEMENT_SET_NO":"999","REV_AT_EPOCH":"2326","BSTAR":"0.00057586","MEAN_MOTION_DOT":"1.508e-05","MEAN_MOTION_DDOT":"0","FILE":"1853199","TLE_LINE0":"0 CZ-2C DEB","TLE_LINE1":"1 40291U 14066F   15099.01970389  .00001508  00000-0  57586-3 0  9992","TLE_LINE2":"2 40291 098.4541 211.3535 0178585 056.2418 305.6121 14.22396349 23263","OBJECT_ID":"2014-066F","OBJECT_NUMBER":"40291"},{"ORDINAL":"3","COMMENT":"GENERATED VIA SPACETRACK.ORG API","ORIGINATOR":"JSPOC","NORAD_CAT_ID":"40149","OBJECT_NAME":"ARIANE 5 DEB (SYLDA)","OBJECT_TYPE":"DEBRIS","CLASSIFICATION_TYPE":"U","INTLDES":"14054D","EPOCH":"2015-04-09 00:39:46","EPOCH_MICROSECONDS":"953792","MEAN_MOTION":"2.39839027","ECCENTRICITY":"0.7201039","INCLINATION":"6.1479","RA_OF_ASC_NODE":"59.708","ARG_OF_PERICENTER":"353.8202","MEAN_ANOMALY":"0.5598","EPHEMERIS_TYPE":"0","ELEMENT_SET_NO":"999","REV_AT_EPOCH":"486","BSTAR":"0.01007","MEAN_MOTION_DOT":"0.00074405","MEAN_MOTION_DDOT":"0","FILE":"1853199","TLE_LINE0":"0 ARIANE 5 DEB (SYLDA)","TLE_LINE1":"1 40149U 14054D   15099.02762678  .00074405  00000-0  10070-1 0  9993","TLE_LINE2":"2 40149 006.1479 059.7080 7201039 353.8202 000.5598 02.39839027  4869","OBJECT_ID":"2014-054D","OBJECT_NUMBER":"40149"},{"ORDINAL":"4","COMMENT":"GENERATED VIA SPACETRACK.ORG API","ORIGINATOR":"JSPOC","NORAD_CAT_ID":"40274","OBJECT_NAME":"ARIANE 5 DEB (SYLDA)","OBJECT_TYPE":"DEBRIS","CLASSIFICATION_TYPE":"U","INTLDES":"14062D","EPOCH":"2015-04-09 01:45:08","EPOCH_MICROSECONDS":"795807","MEAN_MOTION":"2.37604426","ECCENTRICITY":"0.7220399","INCLINATION":"5.9845","RA_OF_ASC_NODE":"102.4934","ARG_OF_PERICENTER":"326.0274","MEAN_ANOMALY":"3.866","EPHEMERIS_TYPE":"0","ELEMENT_SET_NO":"999","REV_AT_EPOCH":"403","BSTAR":"0.006934","MEAN_MOTION_DOT":"0.00056602","MEAN_MOTION_DDOT":"0","FILE":"1853205","TLE_LINE0":"0 ARIANE 5 DEB (SYLDA)","TLE_LINE1":"1 40274U 14062D   15099.07301847  .00056602  00000-0  69340-2 0  9997","TLE_LINE2":"2 40274 005.9845 102.4934 7220399 326.0274 003.8660 02.37604426  4033","OBJECT_ID":"2014-062D","OBJECT_NUMBER":"40274"},{"ORDINAL":"5","COMMENT":"GENERATED VIA SPACETRACK.ORG API","ORIGINATOR":"JSPOC","NORAD_CAT_ID":"40366","OBJECT_NAME":"BREEZE-M DEB (TANK)","OBJECT_TYPE":"DEBRIS","CLASSIFICATION_TYPE":"U","INTLDES":"14089C","EPOCH":"2015-04-09 04:02:00","EPOCH_MICROSECONDS":"511872","MEAN_MOTION":"5.18514247","ECCENTRICITY":"0.5243078","INCLINATION":"49.5373","RA_OF_ASC_NODE":"351.7545","ARG_OF_PERICENTER":"59.0516","MEAN_ANOMALY":"342.2069","EPHEMERIS_TYPE":"0","ELEMENT_SET_NO":"999","REV_AT_EPOCH":"529","BSTAR":"0.0024006","MEAN_MOTION_DOT":"8.606e-05","MEAN_MOTION_DDOT":"0","FILE":"1853445","TLE_LINE0":"0 BREEZE-M DEB (TANK)","TLE_LINE1":"1 40366U 14089C   15099.16806148  .00008606  00000-0  24006-2 0  9993","TLE_LINE2":"2 40366 049.5373 351.7545 5243078 059.0516 342.2069 05.18514247  5296","OBJECT_ID":"2014-089C","OBJECT_NUMBER":"40366"},{"ORDINAL":"4","COMMENT":"GENERATED VIA SPACETRACK.ORG API","ORIGINATOR":"JSPOC","NORAD_CAT_ID":"40290","OBJECT_NAME":"CZ-2C DEB","OBJECT_TYPE":"DEBRIS","CLASSIFICATION_TYPE":"U","INTLDES":"14066E","EPOCH":"2015-04-09 05:36:40","EPOCH_MICROSECONDS":"968864","MEAN_MOTION":"14.50203539","ECCENTRICITY":"0.0101572","INCLINATION":"97.9696","RA_OF_ASC_NODE":"209.5781","ARG_OF_PERICENTER":"79.3083","MEAN_ANOMALY":"281.9527","EPHEMERIS_TYPE":"0","ELEMENT_SET_NO":"999","REV_AT_EPOCH":"2375","BSTAR":"0.0013922","MEAN_MOTION_DOT":"5.745e-05","MEAN_MOTION_DDOT":"0","FILE":"1853366","TLE_LINE0":"0 CZ-2C DEB","TLE_LINE1":"1 40290U 14066E   15099.23380751  .00005745  00000-0  13922-2 0  9995","TLE_LINE2":"2 40290 097.9696 209.5781 0101572 079.3083 281.9527 14.50203539 23754","OBJECT_ID":"2014-066E","OBJECT_NUMBER":"40290"},{"ORDINAL":"3","COMMENT":"GENERATED VIA SPACETRACK.ORG API","ORIGINATOR":"JSPOC","NORAD_CAT_ID":"39730","OBJECT_NAME":"BREEZE-M DEB (TANK)","OBJECT_TYPE":"DEBRIS","CLASSIFICATION_TYPE":"U","INTLDES":"14023D","EPOCH":"2015-04-09 06:49:03","EPOCH_MICROSECONDS":"259199","MEAN_MOTION":"2.3821854","ECCENTRICITY":"0.7223422","INCLINATION":"46.9042","RA_OF_ASC_NODE":"191.4819","ARG_OF_PERICENTER":"94.3497","MEAN_ANOMALY":"343.3658","EPHEMERIS_TYPE":"0","ELEMENT_SET_NO":"999","REV_AT_EPOCH":"795","BSTAR":"0.0014373","MEAN_MOTION_DOT":"0.00020045","MEAN_MOTION_DDOT":"-3.0468e-07","FILE":"1853473","TLE_LINE0":"0 BREEZE-M DEB (TANK)","TLE_LINE1":"1 39730U 14023D   15099.28406550  .00020045 -30468-6  14373-2 0  9995","TLE_LINE2":"2 39730 046.9042 191.4819 7223422 094.3497 343.3658 02.38218540  7956","OBJECT_ID":"2014-023D","OBJECT_NUMBER":"39730"},{"ORDINAL":"4","COMMENT":"GENERATED VIA SPACETRACK.ORG API","ORIGINATOR":"JSPOC","NORAD_CAT_ID":"40048","OBJECT_NAME":"SL-24 DEB","OBJECT_TYPE":"DEBRIS","CLASSIFICATION_TYPE":"U","INTLDES":"14033AQ","EPOCH":"2015-04-09 07:41:35","EPOCH_MICROSECONDS":"815487","MEAN_MOTION":"15.05467632","ECCENTRICITY":"0.0040088","INCLINATION":"97.9634","RA_OF_ASC_NODE":"5.9319","ARG_OF_PERICENTER":"93.5125","MEAN_ANOMALY":"266.997","EPHEMERIS_TYPE":"0","ELEMENT_SET_NO":"999","REV_AT_EPOCH":"4396","BSTAR":"0.0016801","MEAN_MOTION_DOT":"0.00024579","MEAN_MOTION_DDOT":"0","FILE":"1853530","TLE_LINE0":"0 SL-24 DEB","TLE_LINE1":"1 40048U 14033AQ  15099.32055342  .00024579  00000-0  16801-2 0  9990","TLE_LINE2":"2 40048 097.9634 005.9319 0040088 093.5125 266.9970 15.05467632 43968","OBJECT_ID":"2014-033AQ","OBJECT_NUMBER":"40048"}]